CCSDS_OMM_VERS = 2.0
CREATION_DATE  = 
ORIGINATOR     = 

OBJECT_NAME    = ERS-1
OBJECT_ID      = 1991-050A
CENTER_NAME    = EARTH
REF_FRAME      = TEME
TIME_SYSTEM    = UTC
MEAN_ELEMENT_THEORY = SGP/SGP4

EPOCH          = 2025-10-31T14:38:30.327072
MEAN_MOTION    = 14.39315557
ECCENTRICITY   = .0031247
INCLINATION    = 98.7932
RA_OF_ASC_NODE = 314.6055
ARG_OF_PERICENTER = 223.8154
MEAN_ANOMALY   = 136.0554

EPHEMERIS_TYPE = 0
CLASSIFICATION_TYPE = U
NORAD_CAT_ID   = 21574
ELEMENT_SET_NO = 999
REV_AT_EPOCH   = 79716
BSTAR          = .15753E-3
MEAN_MOTION_DOT = .445E-5
MEAN_MOTION_DDOT = 0

CCSDS_OMM_VERS = 2.0
CREATION_DATE  = 
ORIGINATOR     = 

OBJECT_NAME    = ARIANE 40 R/B
OBJECT_ID      = 1991-050F
CENTER_NAME    = EARTH
REF_FRAME      = TEME
TIME_SYSTEM    = UTC
MEAN_ELEMENT_THEORY = SGP/SGP4

EPOCH          = 2025-10-31T18:14:17.115648
MEAN_MOTION    = 14.42758753
ECCENTRICITY   = .0004394
INCLINATION    = 98.2228
RA_OF_ASC_NODE = 356.6934
ARG_OF_PERICENTER = 102.7037
MEAN_ANOMALY   = 257.4645

EPHEMERIS_TYPE = 0
CLASSIFICATION_TYPE = U
NORAD_CAT_ID   = 21610
ELEMENT_SET_NO = 999
REV_AT_EPOCH   = 80040
BSTAR          = .15652E-3
MEAN_MOTION_DOT = .48E-5
MEAN_MOTION_DDOT = 0

CCSDS_OMM_VERS = 2.0
CREATION_DATE  = 
ORIGINATOR     = 

OBJECT_NAME    = INTERCOSMOS 25
OBJECT_ID      = 1991-086A
CENTER_NAME    = EARTH
REF_FRAME      = TEME
TIME_SYSTEM    = UTC
MEAN_ELEMENT_THEORY = SGP/SGP4

EPOCH          = 2025-10-31T16:37:37.672032
MEAN_MOTION    = 12.11550499
ECCENTRICITY   = .1488897
INCLINATION    = 82.6088
RA_OF_ASC_NODE = 27.9845
ARG_OF_PERICENTER = 35.0031
MEAN_ANOMALY   = 334.0321

EPHEMERIS_TYPE = 0
CLASSIFICATION_TYPE = U
NORAD_CAT_ID   = 21819
ELEMENT_SET_NO = 999
REV_AT_EPOCH   = 48106
BSTAR          = .319E-3
MEAN_MOTION_DOT = .165E-4
MEAN_MOTION_DDOT = 0

CCSDS_OMM_VERS = 2.0
CREATION_DATE  = 
ORIGINATOR     = 

OBJECT_NAME    = SL-8 R/B
OBJECT_ID      = 1992-008B
CENTER_NAME    = EARTH
REF_FRAME      = TEME
TIME_SYSTEM    = UTC
MEAN_ELEMENT_THEORY = SGP/SGP4

EPOCH          = 2025-10-31T15:48:02.488032
MEAN_MOTION    = 13.75946523
ECCENTRICITY   = .0035813
INCLINATION    = 82.9301
RA_OF_ASC_NODE = 3.7445
ARG_OF_PERICENTER = 133.6972
MEAN_ANOMALY   = 336.9014

EPHEMERIS_TYPE = 0
CLASSIFICATION_TYPE = U
NORAD_CAT_ID   = 21876
ELEMENT_SET_NO = 999
REV_AT_EPOCH   = 69167
BSTAR          = .92575E-4
MEAN_MOTION_DOT = .106E-5
MEAN_MOTION_DDOT = 0

CCSDS_OMM_VERS = 2.0
CREATION_DATE  = 
ORIGINATOR     = 

OBJECT_NAME    = SL-8 R/B
OBJECT_ID      = 1992-020B
CENTER_NAME    = EARTH
REF_FRAME      = TEME
TIME_SYSTEM    = UTC
MEAN_ELEMENT_THEORY = SGP/SGP4

EPOCH          = 2025-10-31T20:50:01.801824
MEAN_MOTION    = 13.75519732
ECCENTRICITY   = .0027806
INCLINATION    = 82.9296
RA_OF_ASC_NODE = 249.4092
ARG_OF_PERICENTER = 299.2740
MEAN_ANOMALY   = 114.0516

EPHEMERIS_TYPE = 0
CLASSIFICATION_TYPE = U
NORAD_CAT_ID   = 21938
ELEMENT_SET_NO = 999
REV_AT_EPOCH   = 68342
BSTAR          = .45723E-4
MEAN_MOTION_DOT = .59E-6
MEAN_MOTION_DDOT = 0

CCSDS_OMM_VERS = 2.0
CREATION_DATE  = 
ORIGINATOR     = 

OBJECT_NAME    = USA 81
OBJECT_ID      = 1992-023A
CENTER_NAME    = EARTH
REF_FRAME      = TEME
TIME_SYSTEM    = UTC
MEAN_ELEMENT_THEORY = SGP/SGP4

EPOCH          = 2025-10-31T18:26:44.746080
MEAN_MOTION    = 14.32303599
ECCENTRICITY   = .0002769
INCLINATION    = 85.0116
RA_OF_ASC_NODE = 205.7739
ARG_OF_PERICENTER = 86.8352
MEAN_ANOMALY   = 273.3158

EPHEMERIS_TYPE = 0
CLASSIFICATION_TYPE = U
NORAD_CAT_ID   = 21949
ELEMENT_SET_NO = 999
REV_AT_EPOCH   = 7633
BSTAR          = .83278E-4
MEAN_MOTION_DOT = .245E-5
MEAN_MOTION_DDOT = 0

CCSDS_OMM_VERS = 2.0
CREATION_DATE  = 
ORIGINATOR     = 

OBJECT_NAME    = COSMOS 2219
OBJECT_ID      = 1992-076A
CENTER_NAME    = EARTH
REF_FRAME      = TEME
TIME_SYSTEM    = UTC
MEAN_ELEMENT_THEORY = SGP/SGP4

EPOCH          = 2025-10-31T16:55:54.069024
MEAN_MOTION    = 14.14057516
ECCENTRICITY   = .0016933
INCLINATION    = 71.0594
RA_OF_ASC_NODE = 287.6984
ARG_OF_PERICENTER = 31.4575
MEAN_ANOMALY   = 328.7556

EPHEMERIS_TYPE = 0
CLASSIFICATION_TYPE = U
NORAD_CAT_ID   = 22219
ELEMENT_SET_NO = 999
REV_AT_EPOCH   = 70014
BSTAR          = .25274E-3
MEAN_MOTION_DOT = .434E-5
MEAN_MOTION_DDOT = 0

CCSDS_OMM_VERS = 2.0
CREATION_DATE  = 
ORIGINATOR     = 

OBJECT_NAME    = SL-16 R/B
OBJECT_ID      = 1992-076B
CENTER_NAME    = EARTH
REF_FRAME      = TEME
TIME_SYSTEM    = UTC
MEAN_ELEMENT_THEORY = SGP/SGP4

EPOCH          = 2025-10-31T20:51:00.189216
MEAN_MOTION    = 14.16829728
ECCENTRICITY   = .0014949
INCLINATION    = 70.9979
RA_OF_ASC_NODE = 99.7285
ARG_OF_PERICENTER = 288.4167
MEAN_ANOMALY   = 223.8463

EPHEMERIS_TYPE = 0
CLASSIFICATION_TYPE = U
NORAD_CAT_ID   = 22220
ELEMENT_SET_NO = 999
REV_AT_EPOCH   = 70358
BSTAR          = .13354E-3
MEAN_MOTION_DOT = .22E-5
MEAN_MOTION_DDOT = 0

CCSDS_OMM_VERS = 2.0
CREATION_DATE  = 
ORIGINATOR     = 

OBJECT_NAME    = COSMOS 2221
OBJECT_ID      = 1992-080A
CENTER_NAME    = EARTH
REF_FRAME      = TEME
TIME_SYSTEM    = UTC
MEAN_ELEMENT_THEORY = SGP/SGP4

EPOCH          = 2025-10-31T17:39:48.010176
MEAN_MOTION    = 14.95507266
ECCENTRICITY   = .0013159
INCLINATION    = 82.5063
RA_OF_ASC_NODE = 42.5124
ARG_OF_PERICENTER = 264.9433
MEAN_ANOMALY   = 95.0286

EPHEMERIS_TYPE = 0
CLASSIFICATION_TYPE = U
NORAD_CAT_ID   = 22236
ELEMENT_SET_NO = 999
REV_AT_EPOCH   = 76151
BSTAR          = .28303E-3
MEAN_MOTION_DOT = .3163E-4
MEAN_MOTION_DDOT = 0

CCSDS_OMM_VERS = 2.0
CREATION_DATE  = 
ORIGINATOR     = 

OBJECT_NAME    = SL-16 R/B
OBJECT_ID      = 1992-093B
CENTER_NAME    = EARTH
REF_FRAME      = TEME
TIME_SYSTEM    = UTC
MEAN_ELEMENT_THEORY = SGP/SGP4

EPOCH          = 2025-10-31T14:58:32.716128
MEAN_MOTION    = 14.15417790
ECCENTRICITY   = .0003495
INCLINATION    = 71.0201
RA_OF_ASC_NODE = 275.2026
ARG_OF_PERICENTER = 177.7757
MEAN_ANOMALY   = 182.3382

EPHEMERIS_TYPE = 0
CLASSIFICATION_TYPE = U
NORAD_CAT_ID   = 22285
ELEMENT_SET_NO = 999
REV_AT_EPOCH   = 69489
BSTAR          = -.21053E-4
MEAN_MOTION_DOT = -.89E-6
MEAN_MOTION_DDOT = 0

CCSDS_OMM_VERS = 2.0
CREATION_DATE  = 
ORIGINATOR     = 

OBJECT_NAME    = COSMOS 2228
OBJECT_ID      = 1992-094A
CENTER_NAME    = EARTH
REF_FRAME      = TEME
TIME_SYSTEM    = UTC
MEAN_ELEMENT_THEORY = SGP/SGP4

EPOCH          = 2025-10-31T18:27:07.110720
MEAN_MOTION    = 14.96448658
ECCENTRICITY   = .0018549
INCLINATION    = 82.5210
RA_OF_ASC_NODE = 0.6850
ARG_OF_PERICENTER = 20.9052
MEAN_ANOMALY   = 339.2925

EPHEMERIS_TYPE = 0
CLASSIFICATION_TYPE = U
NORAD_CAT_ID   = 22286
ELEMENT_SET_NO = 999
REV_AT_EPOCH   = 75677
BSTAR          = .29896E-3
MEAN_MOTION_DOT = .3428E-4
MEAN_MOTION_DDOT = 0

CCSDS_OMM_VERS = 2.0
CREATION_DATE  = 
ORIGINATOR     = 

OBJECT_NAME    = SL-16 R/B
OBJECT_ID      = 1993-016B
CENTER_NAME    = EARTH
REF_FRAME      = TEME
TIME_SYSTEM    = UTC
MEAN_ELEMENT_THEORY = SGP/SGP4

EPOCH          = 2025-10-31T19:01:48.289728
MEAN_MOTION    = 14.15279536
ECCENTRICITY   = .0009646
INCLINATION    = 71.0052
RA_OF_ASC_NODE = 125.9015
ARG_OF_PERICENTER = 172.8791
MEAN_ANOMALY   = 187.2470

EPHEMERIS_TYPE = 0
CLASSIFICATION_TYPE = U
NORAD_CAT_ID   = 22566
ELEMENT_SET_NO = 999
REV_AT_EPOCH   = 68393
BSTAR          = -.53946E-4
MEAN_MOTION_DOT = -.153E-5
MEAN_MOTION_DDOT = 0

CCSDS_OMM_VERS = 2.0
CREATION_DATE  = 
ORIGINATOR     = 

OBJECT_NAME    = COSMOS 2242
OBJECT_ID      = 1993-024A
CENTER_NAME    = EARTH
REF_FRAME      = TEME
TIME_SYSTEM    = UTC
MEAN_ELEMENT_THEORY = SGP/SGP4

EPOCH          = 2025-10-31T16:44:01.725216
MEAN_MOTION    = 14.95846938
ECCENTRICITY   = .0016916
INCLINATION    = 82.5220
RA_OF_ASC_NODE = 30.0135
ARG_OF_PERICENTER = 24.0855
MEAN_ANOMALY   = 336.1154

EPHEMERIS_TYPE = 0
CLASSIFICATION_TYPE = U
NORAD_CAT_ID   = 22626
ELEMENT_SET_NO = 999
REV_AT_EPOCH   = 76110
BSTAR          = .26227E-3
MEAN_MOTION_DOT = .2963E-4
MEAN_MOTION_DDOT = 0

CCSDS_OMM_VERS = 2.0
CREATION_DATE  = 
ORIGINATOR     = 

OBJECT_NAME    = SL-16 R/B
OBJECT_ID      = 1993-059B
CENTER_NAME    = EARTH
REF_FRAME      = TEME
TIME_SYSTEM    = UTC
MEAN_ELEMENT_THEORY = SGP/SGP4

EPOCH          = 2025-10-31T15:57:42.328800
MEAN_MOTION    = 14.17202677
ECCENTRICITY   = .0015519
INCLINATION    = 70.9893
RA_OF_ASC_NODE = 283.2086
ARG_OF_PERICENTER = 40.4480
MEAN_ANOMALY   = 319.7794

EPHEMERIS_TYPE = 0
CLASSIFICATION_TYPE = U
NORAD_CAT_ID   = 22803
ELEMENT_SET_NO = 999
REV_AT_EPOCH   = 66125
BSTAR          = -.31485E-4
MEAN_MOTION_DOT = -.112E-5
MEAN_MOTION_DDOT = 0

CCSDS_OMM_VERS = 2.0
CREATION_DATE  = 
ORIGINATOR     = 

OBJECT_NAME    = ARIANE 40 R/B
OBJECT_ID      = 1993-061H
CENTER_NAME    = EARTH
REF_FRAME      = TEME
TIME_SYSTEM    = UTC
MEAN_ELEMENT_THEORY = SGP/SGP4

EPOCH          = 2025-10-31T18:53:56.488704
MEAN_MOTION    = 14.32761506
ECCENTRICITY   = .0009733
INCLINATION    = 98.5126
RA_OF_ASC_NODE = 11.0709
ARG_OF_PERICENTER = 309.4359
MEAN_ANOMALY   = 50.5963

EPHEMERIS_TYPE = 0
CLASSIFICATION_TYPE = U
NORAD_CAT_ID   = 22830
ELEMENT_SET_NO = 999
REV_AT_EPOCH   = 67564
BSTAR          = .13943E-3
MEAN_MOTION_DOT = .337E-5
MEAN_MOTION_DDOT = 0

